IRIDIUM 57 [-]          
1 25273U 98019B   23306.49190872  .00000619  00000+0  21067-3 0  9994
2 25273  86.4007  33.4465 0002130  93.2610 266.8830 14.34964476339767
IRIDIUM 63 [-]          
1 25286U 98021B   23306.59874709  .00000567  00000+0  19058-3 0  9999
2 25286  86.3974 330.3660 0002297  87.6800 272.4660 14.35468271338802
IRIDIUM 69 [-]          
1 25319U 98026A   23306.56579541  .00000675  00000+0  20962-3 0  9990
2 25319  86.4001 345.4231 0003307 135.3204 224.8262 14.39644304337764
IRIDIUM 71 [-]          
1 25320U 98026B   23306.61679945  .00000530  00000+0  16227-3 0  9996
2 25320  86.3985 340.2270 0001174 162.6635 197.4604 14.39975475338282
IRIDIUM 73 [-]          
1 25344U 98032C   23306.48234176  .00000876  00000+0  22073-3 0  9996
2 25344  86.4369 298.0676 0002269 106.5266 253.6188 14.50100243344621
IRIDIUM 82 [-]          
1 25467U 98051A   23306.27811815  .00011267  00000+0  65744-3 0  9999
2 25467  86.3994  32.9955 0143741 334.1962  25.2147 15.03400816334173
IRIDIUM 2 [-]           
1 25527U 98066A   23306.41899542  .00051807  00000+0  11423-2 0  9999
2 25527  85.5166  87.2261 0005162 118.1116 242.0661 15.43693998372429
